SAUDISAT 5A             
1 43831U 18102A   26177.72540323  .00005701  00000+0  21014-3 0  9993
2 43831  97.3069 239.1225 0011323 100.1845 260.0672 15.28141248417133
SAUDISAT 5B             
1 43833U 18102C   26177.74265924  .00005341  00000+0  19551-3 0  9991
2 43833  97.3178 242.2264 0012042 102.0222 258.2369 15.28393197417250
GAOFEN-10R              
1 44622U 19066A   26177.73453029  .00001093  00000+0  14121-3 0  9990
2 44622  98.0499 131.3833 0007139 100.4968 259.7050 14.83019150363797
CARTOSAT-3              
1 44804U 19081A   26177.70743088  .00004159  00000+0  20044-3 0  9990
2 44804  97.4308 239.4214 0013160 117.6398 242.6174 15.19203129364916
GAOFEN-12 01            
1 44819U 19082A   26177.74476596  .00000367  00000+0  54622-4 0  9995
2 44819  97.8101 183.8719 0001915  60.5270 299.6133 14.80465595355505
CSG-1                   
1 44873U 19092A   26177.77285426  .00000386  00000+0  55059-4 0  9995
2 44873  97.8889   1.2365 0001452  90.0809 270.0571 14.82160591352898
NEMO-HD                 
1 46277U 20061F   26177.71733269  .00010708  00000+0  23063-3 0  9998
2 46277  97.1922 239.5744 0001804  74.6252 285.5196 15.44778516323452
SENTINEL-6A             
1 46984U 20086A   26177.76689953 -.00000074  00000+0 -56220-4 0  9994
2 46984  66.0408 115.1556 0007856 270.0196  89.9919 12.80929972261555
CAS500-1                
1 47932U 21022A   26177.73927517  .00006191  00000+0  28904-3 0  9998
2 47932  97.3897  72.7992 0003582 248.2280 111.8575 15.20176609292211
GAOFEN-12 02            
1 48079U 21026A   26177.75685068  .00000337  00000+0  51164-4 0  9990
2 48079  97.9923 175.8983 0004417 185.9071 174.2089 14.80302859283179
PLEIADES NEO 3          
1 48268U 21034A   26177.77522539  .00001767  00000+0  23115-3 0  9996
2 48268  97.8933 252.4040 0001390  87.5036 272.6336 14.81675375279079
LANDSAT 9               
1 49260U 21088A   26177.74166172  .00000297  00000+0  75918-4 0  9998
2 49260  98.2278 247.8034 0001278  84.7805 275.3539 14.57103120252396
CSG-2                   
1 51444U 22008A   26177.73907681  .00000723  00000+0  97368-4 0  9992
2 51444  97.8889   1.1984 0001556  86.7989 273.3402 14.82151634238005
GAOFEN-12 03            
1 52912U 22069A   26177.72084873  .00001289  00000+0  17695-3 0  9990
2 52912  97.8275  65.3503 0002340  94.1433 266.0047 14.80049681216021
SWOT                    
1 54754U 22173A   26177.70603356  .00000012  00000+0  10071-4 0  9998
2 54754  77.6102  22.4595 0000286  87.6964 272.4221 14.00170681180482
GAOFEN-12 04            
1 57654U 23123A   26177.73680347  .00000946  00000+0  13275-3 0  9998
2 57654  97.9116  95.6165 0003970  87.4428 272.7238 14.79743039154048
PARS 1                  
1 59065U 24039Q   26177.76554512  .00010949  00000+0  22643-3 0  9993
2 59065  97.4819 158.9879 0011527  83.7385 276.5177 15.45916037130125
RESURS-P 4              
1 59371U 24061A   26177.60247524  .00003094  00000+0  10205-3 0  9997
2 59371  97.2750 125.3372 0002779 116.1338 244.0190 15.32181243125208
LEGION 1                
1 59625U 24081A   26177.72736199  .00003376  00000+0  17550-3 0  9998
2 59625  97.5020 255.4824 0008580 344.2903  15.8063 15.16727258118982
LEGION 2                
1 59626U 24081B   26177.69150377  .00003967  00000+0  20570-3 0  9995
2 59626  97.5020 255.5442 0010049 307.4235  52.6083 15.16705245118985
ALOS-4 (DAICHI-4)       
1 60182U 24123A   26177.76238980  .00001363  00000+0  18929-3 0  9999
2 60182  97.9217 274.8011 0001567  95.7532 264.3858 14.79475324107298
LEGION 3                
1 60452U 24146A   26177.55339692  .00003880  00000+0  21130-3 0  9997
2 60452  45.0025 340.3206 0008764 222.3478 137.6725 15.16108789103445
LEGION 4                
1 60453U 24146B   26177.55656573  .00003941  00000+0  21432-3 0  9991
2 60453  45.0018  72.2138 0012725 359.1464   0.9391 15.16099891102295
SENTINEL-2C             
1 60989U 24157A   26177.68302671  .00000085  00000+0  48982-4 0  9994
2 60989  98.5692 252.3309 0000935  88.5573 271.5717 14.30820146 94349
IONOSFERA-M 1           
1 61735U 24199A   26177.75811296  .00000037  00000+0  36255-4 0  9993
2 61735  98.7163  50.8288 0002150  97.6142 262.5280 14.22755897129069
IONOSFERA-M 2           
1 61736U 24199B   26177.72205926  .00000049  00000+0  41430-4 0  9992
2 61736  98.7162  50.7037 0000635  39.6259 320.4966 14.22759169132189
PRSC-EO1                
1 62725U 25012A   26177.75195300  .00007277  00000+0  36384-3 0  9994
2 62725  97.4229 250.0247 0005560 212.2825 147.8069 15.17722698 79644
BIOMASS                 
1 63772U 25090A   26176.41992450  .00000661  00000+0  12495-3 0  9993
2 63772  98.0741   3.6181 0001429  94.8977 265.2391 14.67536962 61896
GOSAT-GW (IBUKI GW)     
1 64694U 25141A   26177.73555229  .00000933  00000+0  17295-3 0  9994
2 64694  98.0567 114.8974 0001446  83.8977 276.2392 14.67553124 53240
IONOSFERA-M 3           
1 64876U 25155A   26177.74829609  .00000024  00000+0  30734-4 0  9993
2 64876  98.6028 139.4127 0001549 140.8701 219.2589 14.21487919 47769
