OBJECT_NAME,OBJECT_ID,EPOCH,MEAN_MOTION,ECCENTRICITY,INCLINATION,RA_OF_ASC_NODE,ARG_OF_PERICENTER,MEAN_ANOMALY,EPHEMERIS_TYPE,CLASSIFICATION_TYPE,NORAD_CAT_ID,ELEMENT_SET_NO,REV_AT_EPOCH,BSTAR,MEAN_MOTION_DOT,MEAN_MOTION_DDOT
SAUDISAT 5A,2018-102A,2026-06-26T17:24:34.839072,15.28141248,.0011323,97.3069,239.1225,100.1845,260.0672,0,U,43831,999,41713,.21014E-3,.5701E-4,0
SAUDISAT 5B,2018-102C,2026-06-26T17:49:25.758336,15.28393197,.0012042,97.3178,242.2264,102.0222,258.2369,0,U,43833,999,41725,.19551E-3,.5341E-4,0
GAOFEN-10R,2019-066A,2026-06-26T17:37:43.417056,14.83019150,.0007139,98.0499,131.3833,100.4968,259.7050,0,U,44622,999,36379,.14121E-3,.1093E-4,0
CARTOSAT-3,2019-081A,2026-06-26T16:58:42.028032,15.19203129,.001316,97.4308,239.4214,117.6398,242.6174,0,U,44804,999,36491,.20044E-3,.4159E-4,0
GAOFEN-12 01,2019-082A,2026-06-26T17:52:27.778944,14.80465595,.0001915,97.8101,183.8719,60.5270,299.6133,0,U,44819,999,35550,.54622E-4,.367E-5,0
CSG-1,2019-092A,2026-06-26T18:32:54.608064,14.82160591,.0001452,97.8889,1.2365,90.0809,270.0571,0,U,44873,999,35289,.55059E-4,.386E-5,0
NEMO-HD,2020-061F,2026-06-26T17:12:57.544416,15.44778516,.0001804,97.1922,239.5744,74.6252,285.5196,0,U,46277,999,32345,.23063E-3,.10708E-3,0
SENTINEL-6A,2020-086A,2026-06-26T18:24:20.119392,12.80929972,.0007856,66.0408,115.1556,270.0196,89.9919,0,U,46984,999,26155,-.5622E-4,-.74E-6,0
CAS500-1,2021-022A,2026-06-26T17:44:33.374688,15.20176609,.0003582,97.3897,72.7992,248.2280,111.8575,0,U,47932,999,29221,.28904E-3,.6191E-4,0
GAOFEN-12 02,2021-026A,2026-06-26T18:09:51.898752,14.80302859,.0004417,97.9923,175.8983,185.9071,174.2089,0,U,48079,999,28317,.51164E-4,.337E-5,0
PLEIADES NEO 3,2021-034A,2026-06-26T18:36:19.473696,14.81675375,.000139,97.8933,252.4040,87.5036,272.6336,0,U,48268,999,27907,.23115E-3,.1767E-4,0
LANDSAT 9,2021-088A,2026-06-26T17:47:59.572608,14.57103120,.0001278,98.2278,247.8034,84.7805,275.3539,0,U,49260,999,25239,.75918E-4,.297E-5,0
CSG-2,2022-008A,2026-06-26T17:44:16.236384,14.82151634,.0001556,97.8889,1.1984,86.7989,273.3402,0,U,51444,999,23800,.97368E-4,.723E-5,0
GAOFEN-12 03,2022-069A,2026-06-26T17:18:01.330272,14.80049681,.000234,97.8275,65.3503,94.1433,266.0047,0,U,52912,999,21602,.17695E-3,.1289E-4,0
SWOT,2022-173A,2026-06-26T16:56:41.299584,14.00170681,.0000286,77.6102,22.4595,87.6964,272.4221,0,U,54754,999,18048,.10071E-4,.12E-6,0
GAOFEN-12 04,2023-123A,2026-06-26T17:40:59.819808,14.79743039,.000397,97.9116,95.6165,87.4428,272.7238,0,U,57654,999,15404,.13275E-3,.946E-5,0
PARS 1,2024-039Q,2026-06-26T18:22:23.098368,15.45916037,.0011527,97.4819,158.9879,83.7385,276.5177,0,U,59065,999,13012,.22643E-3,.10949E-3,0
RESURS-P 4,2024-061A,2026-06-26T14:27:33.860736,15.32181243,.00027791,97.2750,125.3372,116.1338,244.0190,0,U,59371,999,12520,.10204551E-3,.3094E-4,0
LEGION 1,2024-081A,2026-06-26T17:27:24.075936,15.16727258,.000858,97.5020,255.4824,344.2903,15.8063,0,U,59625,999,11898,.1755E-3,.3376E-4,0
LEGION 2,2024-081B,2026-06-26T16:35:45.925728,15.16705245,.0010049,97.5020,255.5442,307.4235,52.6083,0,U,59626,999,11898,.2057E-3,.3967E-4,0
ALOS-4 (DAICHI-4),2024-123A,2026-06-26T18:17:50.478720,14.79475324,.0001567,97.9217,274.8011,95.7532,264.3858,0,U,60182,999,10729,.18929E-3,.1363E-4,0
LEGION 3,2024-146A,2026-06-26T13:16:53.493888,15.16108789,.00087643,45.0025,340.3206,222.3478,137.6725,0,U,60452,999,10344,.21130491E-3,.388E-4,0
LEGION 4,2024-146B,2026-06-26T13:21:27.279072,15.16099891,.00127257,45.0018,72.2138,359.1464,0.9391,0,U,60453,999,10229,.21432311E-3,.3941E-4,0
SENTINEL-2C,2024-157A,2026-06-26T16:23:33.507744,14.30820146,.0000935,98.5692,252.3309,88.5573,271.5717,0,U,60989,999,9434,.48982E-4,.85E-6,0
IONOSFERA-M 1,2024-199A,2026-06-26T18:11:40.959744,14.22755897,.000215,98.7163,50.8288,97.6142,262.5280,0,U,61735,999,12906,.36255E-4,.37E-6,0
IONOSFERA-M 2,2024-199B,2026-06-26T17:19:45.920064,14.22759169,.0000635,98.7162,50.7037,39.6259,320.4966,0,U,61736,999,13218,.4143E-4,.49E-6,0
PRSC-EO1,2025-012A,2026-06-26T18:02:48.739200,15.17722698,.000556,97.4229,250.0247,212.2825,147.8069,0,U,62725,999,7964,.36384E-3,.7277E-4,0
BIOMASS,2025-090A,2026-06-25T10:04:41.476800,14.67536962,.0001429,98.0741,3.6181,94.8977,265.2391,0,U,63772,999,6189,.12495E-3,.661E-5,0
GOSAT-GW (IBUKI GW),2025-141A,2026-06-26T17:39:11.717856,14.67553124,.0001446,98.0567,114.8974,83.8977,276.2392,0,U,64694,999,5324,.17295E-3,.933E-5,0
IONOSFERA-M 3,2025-155A,2026-06-26T17:57:32.782176,14.21487919,.0001549,98.6028,139.4127,140.8701,219.2589,0,U,64876,999,4776,.30734E-4,.24E-6,0
